[{"OBJECT_NAME":"GPS BIIR-08","OBJECT_ID":"2003-005A","EPOCH":"2026-03-06T09:53:39.321888","MEAN_MOTION":2.005662,"ECCENTRICITY":0.01487327,"INCLINATION":54.9069,"RA_OF_ASC_NODE":219.0498,"ARG_OF_PERICENTER":52.7313,"MEAN_ANOMALY":318.1949,"EPHEMERIS_TYPE":0,"CLASSIFICATION_TYPE":"U","NORAD_CAT_ID":27663,"ELEMENT_SET_NO":999,"REV_AT_EPOCH":16925,"BSTAR":0,"MEAN_MOTION_DOT":2.0e-7,"MEAN_MOTION_DDOT":0},{"OBJECT_NAME":"GPS BIIR-11","OBJECT_ID":"2004-009A","EPOCH":"2026-03-05T22:23:44.700000","MEAN_MOTION":2.00558087,"ECCENTRICITY":0.01110255,"INCLINATION":54.9146,"RA_OF_ASC_NODE":279.8578,"ARG_OF_PERICENTER":169.1048,"MEAN_ANOMALY":11.7386,"EPHEMERIS_TYPE":0,"CLASSIFICATION_TYPE":"U","NORAD_CAT_ID":28190,"ELEMENT_SET_NO":999,"REV_AT_EPOCH":16087,"BSTAR":0,"MEAN_MOTION_DOT":-2.3e-7,"MEAN_MOTION_DDOT":0},{"OBJECT_NAME":"GPS BIIR-13","OBJECT_ID":"2004-045A","EPOCH":"2026-03-06T08:11:08.365920","MEAN_MOTION":2.00573554,"ECCENTRICITY":0.01708129,"INCLINATION":55.1936,"RA_OF_ASC_NODE":329.0412,"ARG_OF_PERICENTER":312.9072,"MEAN_ANOMALY":225.9723,"EPHEMERIS_TYPE":0,"CLASSIFICATION_TYPE":"U","NORAD_CAT_ID":28474,"ELEMENT_SET_NO":999,"REV_AT_EPOCH":15636,"BSTAR":0,"MEAN_MOTION_DOT":-9.5e-7,"MEAN_MOTION_DDOT":0},{"OBJECT_NAME":"GPS BIIR-14M","OBJECT_ID":"2005-038A","EPOCH":"2026-03-06T15:45:49.229856","MEAN_MOTION":2.0057291,"ECCENTRICITY":0.0128744,"INCLINATION":54.9613,"RA_OF_ASC_NODE":277.314,"ARG_OF_PERICENTER":295.3788,"MEAN_ANOMALY":71.8812,"EPHEMERIS_TYPE":0,"CLASSIFICATION_TYPE":"U","NORAD_CAT_ID":28874,"ELEMENT_SET_NO":999,"REV_AT_EPOCH":14978,"BSTAR":0,"MEAN_MOTION_DOT":-1.7e-7,"MEAN_MOTION_DDOT":0},{"OBJECT_NAME":"METEOSAT-9 (MSG-2)","OBJECT_ID":"2005-049B","EPOCH":"2026-03-06T14:10:33.237408","MEAN_MOTION":1.00278557,"ECCENTRICITY":0.00015998,"INCLINATION":9.1298,"RA_OF_ASC_NODE":55.1603,"ARG_OF_PERICENTER":224.1198,"MEAN_ANOMALY":143.4443,"EPHEMERIS_TYPE":0,"CLASSIFICATION_TYPE":"U","NORAD_CAT_ID":28912,"ELEMENT_SET_NO":999,"REV_AT_EPOCH":597,"BSTAR":0,"MEAN_MOTION_DOT":1.22e-6,"MEAN_MOTION_DDOT":0},{"OBJECT_NAME":"GPS BIIR-16M","OBJECT_ID":"2006-052A","EPOCH":"2026-03-06T04:59:50.891424","MEAN_MOTION":2.00551801,"ECCENTRICITY":0.00878424,"INCLINATION":54.9564,"RA_OF_ASC_NODE":218.0858,"ARG_OF_PERICENTER":89.3907,"MEAN_ANOMALY":271.5694,"EPHEMERIS_TYPE":0,"CLASSIFICATION_TYPE":"U","NORAD_CAT_ID":29601,"ELEMENT_SET_NO":999,"REV_AT_EPOCH":14134,"BSTAR":0,"MEAN_MOTION_DOT":1.8e-7,"MEAN_MOTION_DDOT":0},{"OBJECT_NAME":"GPS BIIR-17M","OBJECT_ID":"2007-047A","EPOCH":"2026-03-06T00:23:33.368352","MEAN_MOTION":2.00560687,"ECCENTRICITY":0.01636139,"INCLINATION":54.017,"RA_OF_ASC_NODE":84.3168,"ARG_OF_PERICENTER":85.9747,"MEAN_ANOMALY":275.9459,"EPHEMERIS_TYPE":0,"CLASSIFICATION_TYPE":"U","NORAD_CAT_ID":32260,"ELEMENT_SET_NO":999,"REV_AT_EPOCH":13474,"BSTAR":0,"MEAN_MOTION_DOT":-1.5e-7,"MEAN_MOTION_DDOT":0},{"OBJECT_NAME":"GPS BIIR-18M","OBJECT_ID":"2007-062A","EPOCH":"2026-03-06T01:54:28.774080","MEAN_MOTION":2.00553677,"ECCENTRICITY":0.00329705,"INCLINATION":55.1135,"RA_OF_ASC_NODE":278.2961,"ARG_OF_PERICENTER":160.6738,"MEAN_ANOMALY":12.9295,"EPHEMERIS_TYPE":0,"CLASSIFICATION_TYPE":"U","NORAD_CAT_ID":32384,"ELEMENT_SET_NO":999,"REV_AT_EPOCH":13344,"BSTAR":0,"MEAN_MOTION_DOT":-2.0e-7,"MEAN_MOTION_DDOT":0},{"OBJECT_NAME":"GOES 14","OBJECT_ID":"2009-033A","EPOCH":"2026-03-06T18:20:01.815360","MEAN_MOTION":1.00100447,"ECCENTRICITY":0.0001768,"INCLINATION":1.4253,"RA_OF_ASC_NODE":84.3866,"ARG_OF_PERICENTER":257.0298,"MEAN_ANOMALY":298.4685,"EPHEMERIS_TYPE":0,"CLASSIFICATION_TYPE":"U","NORAD_CAT_ID":35491,"ELEMENT_SET_NO":999,"REV_AT_EPOCH":556,"BSTAR":0,"MEAN_MOTION_DOT":1.21e-6,"MEAN_MOTION_DDOT":0},{"OBJECT_NAME":"GOES 15","OBJECT_ID":"2010-008A","EPOCH":"2026-03-06T19:23:40.711776","MEAN_MOTION":1.00269857,"ECCENTRICITY":0.0002095,"INCLINATION":1.0146,"RA_OF_ASC_NODE":85.1017,"ARG_OF_PERICENTER":17.708,"MEAN_ANOMALY":56.0929,"EPHEMERIS_TYPE":0,"CLASSIFICATION_TYPE":"U","NORAD_CAT_ID":36411,"ELEMENT_SET_NO":999,"REV_AT_EPOCH":5861,"BSTAR":0,"MEAN_MOTION_DOT":1.8e-7,"MEAN_MOTION_DDOT":0},{"OBJECT_NAME":"GSAT0101 (GALILEO-PFM)","OBJECT_ID":"2011-060A","EPOCH":"2026-02-22T11:08:37.810464","MEAN_MOTION":1.70475478,"ECCENTRICITY":0.00039756,"INCLINATION":57.0318,"RA_OF_ASC_NODE":344.8758,"ARG_OF_PERICENTER":357.0591,"MEAN_ANOMALY":2.9533,"EPHEMERIS_TYPE":0,"CLASSIFICATION_TYPE":"U","NORAD_CAT_ID":37846,"ELEMENT_SET_NO":999,"REV_AT_EPOCH":8916,"BSTAR":0,"MEAN_MOTION_DOT":-8.2e-7,"MEAN_MOTION_DDOT":0},{"OBJECT_NAME":"GSAT0102 (GALILEO-FM2)","OBJECT_ID":"2011-060B","EPOCH":"2026-03-01T01:30:59.316192","MEAN_MOTION":1.70475778,"ECCENTRICITY":0.00054225,"INCLINATION":57.0301,"RA_OF_ASC_NODE":344.6971,"ARG_OF_PERICENTER":341.2092,"MEAN_ANOMALY":154.1953,"EPHEMERIS_TYPE":0,"CLASSIFICATION_TYPE":"U","NORAD_CAT_ID":37847,"ELEMENT_SET_NO":999,"REV_AT_EPOCH":8928,"BSTAR":0,"MEAN_MOTION_DOT":-1.06e-6,"MEAN_MOTION_DDOT":0},{"OBJECT_NAME":"LUCH 5A","OBJECT_ID":"2011-074B","EPOCH":"2026-03-06T19:53:07.888992","MEAN_MOTION":1.00276045,"ECCENTRICITY":0.0003865,"INCLINATION":8.4932,"RA_OF_ASC_NODE":75.3103,"ARG_OF_PERICENTER":248.4746,"MEAN_ANOMALY":306.1672,"EPHEMERIS_TYPE":0,"CLASSIFICATION_TYPE":"U","NORAD_CAT_ID":37951,"ELEMENT_SET_NO":999,"REV_AT_EPOCH":5202,"BSTAR":0,"MEAN_MOTION_DOT":-4.9e-7,"MEAN_MOTION_DDOT":0},{"OBJECT_NAME":"METEOSAT-10 (MSG-3)","OBJECT_ID":"2012-035B","EPOCH":"2026-03-06T19:05:34.948032","MEAN_MOTION":1.00267966,"ECCENTRICITY":0.000249,"INCLINATION":4.4292,"RA_OF_ASC_NODE":61.4529,"ARG_OF_PERICENTER":283.3598,"MEAN_ANOMALY":106.334,"EPHEMERIS_TYPE":0,"CLASSIFICATION_TYPE":"U","NORAD_CAT_ID":38552,"ELEMENT_SET_NO":999,"REV_AT_EPOCH":4983,"BSTAR":0,"MEAN_MOTION_DOT":-8.0e-8,"MEAN_MOTION_DDOT":0},{"OBJECT_NAME":"SARSAT 13 (METOP-B)","OBJECT_ID":"2012-049A","EPOCH":"2026-03-06T18:29:02.818464","MEAN_MOTION":14.21443683,"ECCENTRICITY":0.0001184,"INCLINATION":98.6648,"RA_OF_ASC_NODE":119.2501,"ARG_OF_PERICENTER":281.9884,"MEAN_ANOMALY":78.1161,"EPHEMERIS_TYPE":0,"CLASSIFICATION_TYPE":"U","NORAD_CAT_ID":38771,"ELEMENT_SET_NO":999,"REV_AT_EPOCH":69871,"BSTAR":9.7062e-5,"MEAN_MOTION_DOT":1.69e-6,"MEAN_MOTION_DDOT":0},{"OBJECT_NAME":"GPS BIIF-3","OBJECT_ID":"2012-053A","EPOCH":"2026-03-06T02:42:14.560128","MEAN_MOTION":2.00565873,"ECCENTRICITY":0.01769542,"INCLINATION":53.566,"RA_OF_ASC_NODE":147.8234,"ARG_OF_PERICENTER":64.7855,"MEAN_ANOMALY":297.0886,"EPHEMERIS_TYPE":0,"CLASSIFICATION_TYPE":"U","NORAD_CAT_ID":38833,"ELEMENT_SET_NO":999,"REV_AT_EPOCH":9737,"BSTAR":0,"MEAN_MOTION_DOT":8.0e-8,"MEAN_MOTION_DDOT":0},{"OBJECT_NAME":"GSAT0103 (GALILEO-FM3)","OBJECT_ID":"2012-055A","EPOCH":"2026-03-05T15:35:51.460224","MEAN_MOTION":1.70473457,"ECCENTRICITY":0.00054255,"INCLINATION":55.7393,"RA_OF_ASC_NODE":104.3859,"ARG_OF_PERICENTER":285.5287,"MEAN_ANOMALY":74.4915,"EPHEMERIS_TYPE":0,"CLASSIFICATION_TYPE":"U","NORAD_CAT_ID":38857,"ELEMENT_SET_NO":999,"REV_AT_EPOCH":8325,"BSTAR":0,"MEAN_MOTION_DOT":9.0e-8,"MEAN_MOTION_DDOT":0}]
